[{"OBJECT_NAME":"STARLINK-5131","OBJECT_ID":"2022-125AJ","EPOCH":"2026-03-22T14:22:18.322752","MEAN_MOTION":15.08841408,"ECCENTRICITY":0.00010204,"INCLINATION":53.2172,"RA_OF_ASC_NODE":156.0077,"ARG_OF_PERICENTER":108.4488,"MEAN_ANOMALY":251.6615,"EPHEMERIS_TYPE":0,"CLASSIFICATION_TYPE":"U","NORAD_CAT_ID":53996,"ELEMENT_SET_NO":999,"REV_AT_EPOCH":19141,"BSTAR":0.00018667794,"MEAN_MOTION_DOT":2.685e-5,"MEAN_MOTION_DDOT":0},{"OBJECT_NAME":"STARLINK-5130","OBJECT_ID":"2022-125AK","EPOCH":"2026-03-22T21:32:57.205248","MEAN_MOTION":15.08828902,"ECCENTRICITY":0.00012297,"INCLINATION":53.2173,"RA_OF_ASC_NODE":145.0551,"ARG_OF_PERICENTER":85.8824,"MEAN_ANOMALY":274.2308,"EPHEMERIS_TYPE":0,"CLASSIFICATION_TYPE":"U","NORAD_CAT_ID":53997,"ELEMENT_SET_NO":999,"REV_AT_EPOCH":19159,"BSTAR":-7.2566213e-5,"MEAN_MOTION_DOT":-1.442e-5,"MEAN_MOTION_DDOT":0},{"OBJECT_NAME":"STARLINK-5128","OBJECT_ID":"2022-125AL","EPOCH":"2026-03-22T22:08:36.069216","MEAN_MOTION":15.08882669,"ECCENTRICITY":0.00010265,"INCLINATION":53.2174,"RA_OF_ASC_NODE":154.4776,"ARG_OF_PERICENTER":90.7932,"MEAN_ANOMALY":269.3178,"EPHEMERIS_TYPE":0,"CLASSIFICATION_TYPE":"U","NORAD_CAT_ID":53998,"ELEMENT_SET_NO":999,"REV_AT_EPOCH":19146,"BSTAR":-0.00039251784,"MEAN_MOTION_DOT":-6.537e-5,"MEAN_MOTION_DDOT":0},{"OBJECT_NAME":"STARLINK-5079","OBJECT_ID":"2022-125AM","EPOCH":"2026-03-22T22:29:50.986752","MEAN_MOTION":15.08834305,"ECCENTRICITY":0.00011522,"INCLINATION":53.2169,"RA_OF_ASC_NODE":154.5656,"ARG_OF_PERICENTER":90.1553,"MEAN_ANOMALY":269.9571,"EPHEMERIS_TYPE":0,"CLASSIFICATION_TYPE":"U","NORAD_CAT_ID":53999,"ELEMENT_SET_NO":999,"REV_AT_EPOCH":19146,"BSTAR":-2.177173e-5,"MEAN_MOTION_DOT":-6.34e-6,"MEAN_MOTION_DDOT":0},{"OBJECT_NAME":"STARLINK-5088","OBJECT_ID":"2022-125AN","EPOCH":"2026-03-22T21:27:38.841120","MEAN_MOTION":15.0883077,"ECCENTRICITY":0.00016323,"INCLINATION":53.2182,"RA_OF_ASC_NODE":145.0329,"ARG_OF_PERICENTER":87.4159,"MEAN_ANOMALY":272.702,"EPHEMERIS_TYPE":0,"CLASSIFICATION_TYPE":"U","NORAD_CAT_ID":54000,"ELEMENT_SET_NO":999,"REV_AT_EPOCH":19159,"BSTAR":-0.00010787651,"MEAN_MOTION_DOT":-2.004e-5,"MEAN_MOTION_DDOT":0},{"OBJECT_NAME":"STARLINK-5109","OBJECT_ID":"2022-125AQ","EPOCH":"2026-03-22T14:02:25.594944","MEAN_MOTION":15.08831062,"ECCENTRICITY":0.00012715,"INCLINATION":53.2177,"RA_OF_ASC_NODE":145.9676,"ARG_OF_PERICENTER":91.7213,"MEAN_ANOMALY":268.3925,"EPHEMERIS_TYPE":0,"CLASSIFICATION_TYPE":"U","NORAD_CAT_ID":54002,"ELEMENT_SET_NO":999,"REV_AT_EPOCH":19155,"BSTAR":-9.9859919e-5,"MEAN_MOTION_DOT":-1.876e-5,"MEAN_MOTION_DDOT":0},{"OBJECT_NAME":"STARLINK-5114","OBJECT_ID":"2022-125AR","EPOCH":"2026-03-22T22:13:54.717600","MEAN_MOTION":15.08839389,"ECCENTRICITY":9.858e-5,"INCLINATION":53.217,"RA_OF_ASC_NODE":154.4989,"ARG_OF_PERICENTER":89.3811,"MEAN_ANOMALY":270.7294,"EPHEMERIS_TYPE":0,"CLASSIFICATION_TYPE":"U","NORAD_CAT_ID":54003,"ELEMENT_SET_NO":999,"REV_AT_EPOCH":19146,"BSTAR":-2.9156549e-5,"MEAN_MOTION_DOT":-7.52e-6,"MEAN_MOTION_DDOT":0},{"OBJECT_NAME":"STARLINK-5129","OBJECT_ID":"2022-125AS","EPOCH":"2026-03-22T21:58:01.143264","MEAN_MOTION":15.08818907,"ECCENTRICITY":0.00017321,"INCLINATION":53.2169,"RA_OF_ASC_NODE":154.427,"ARG_OF_PERICENTER":80.0342,"MEAN_ANOMALY":280.0846,"EPHEMERIS_TYPE":0,"CLASSIFICATION_TYPE":"U","NORAD_CAT_ID":54004,"ELEMENT_SET_NO":999,"REV_AT_EPOCH":19146,"BSTAR":0.00021683197,"MEAN_MOTION_DOT":3.163e-5,"MEAN_MOTION_DDOT":0},{"OBJECT_NAME":"STARLINK-5135","OBJECT_ID":"2022-125AT","EPOCH":"2026-03-22T22:03:18.963072","MEAN_MOTION":15.08839456,"ECCENTRICITY":0.00014846,"INCLINATION":53.2171,"RA_OF_ASC_NODE":154.4531,"ARG_OF_PERICENTER":82.5983,"MEAN_ANOMALY":277.5178,"EPHEMERIS_TYPE":0,"CLASSIFICATION_TYPE":"U","NORAD_CAT_ID":54005,"ELEMENT_SET_NO":999,"REV_AT_EPOCH":19146,"BSTAR":-1.514734e-5,"MEAN_MOTION_DOT":-5.29e-6,"MEAN_MOTION_DDOT":0},{"OBJECT_NAME":"STARLINK-5096","OBJECT_ID":"2022-125AU","EPOCH":"2026-03-22T21:42:06.501024","MEAN_MOTION":15.08824945,"ECCENTRICITY":0.0001394,"INCLINATION":53.2173,"RA_OF_ASC_NODE":154.3706,"ARG_OF_PERICENTER":82.8661,"MEAN_ANOMALY":277.2489,"EPHEMERIS_TYPE":0,"CLASSIFICATION_TYPE":"U","NORAD_CAT_ID":54006,"ELEMENT_SET_NO":999,"REV_AT_EPOCH":19145,"BSTAR":-8.1428562e-5,"MEAN_MOTION_DOT":-1.583e-5,"MEAN_MOTION_DDOT":0},{"OBJECT_NAME":"STARLINK-5132","OBJECT_ID":"2022-125AV","EPOCH":"2026-03-22T12:20:22.083072","MEAN_MOTION":15.08850202,"ECCENTRICITY":0.00010061,"INCLINATION":53.2162,"RA_OF_ASC_NODE":156.1951,"ARG_OF_PERICENTER":80.6567,"MEAN_ANOMALY":279.4539,"EPHEMERIS_TYPE":0,"CLASSIFICATION_TYPE":"U","NORAD_CAT_ID":54007,"ELEMENT_SET_NO":999,"REV_AT_EPOCH":19140,"BSTAR":0.00022435726,"MEAN_MOTION_DOT":3.286e-5,"MEAN_MOTION_DDOT":0},{"OBJECT_NAME":"STARLINK-5145","OBJECT_ID":"2022-125AW","EPOCH":"2026-03-22T21:48:43.717248","MEAN_MOTION":15.08822656,"ECCENTRICITY":0.00012649,"INCLINATION":53.2158,"RA_OF_ASC_NODE":144.4178,"ARG_OF_PERICENTER":115.5383,"MEAN_ANOMALY":244.5741,"EPHEMERIS_TYPE":0,"CLASSIFICATION_TYPE":"U","NORAD_CAT_ID":54008,"ELEMENT_SET_NO":999,"REV_AT_EPOCH":19160,"BSTAR":0.00031408925,"MEAN_MOTION_DOT":4.712e-5,"MEAN_MOTION_DDOT":0},{"OBJECT_NAME":"STARLINK-5099","OBJECT_ID":"2022-125AX","EPOCH":"2026-03-22T21:47:25.185696","MEAN_MOTION":15.08824218,"ECCENTRICITY":0.00010194,"INCLINATION":53.217,"RA_OF_ASC_NODE":154.3885,"ARG_OF_PERICENTER":89.6194,"MEAN_ANOMALY":270.4915,"EPHEMERIS_TYPE":0,"CLASSIFICATION_TYPE":"U","NORAD_CAT_ID":54009,"ELEMENT_SET_NO":999,"REV_AT_EPOCH":19146,"BSTAR":-7.6365255e-5,"MEAN_MOTION_DOT":-1.502e-5,"MEAN_MOTION_DDOT":0},{"OBJECT_NAME":"STARLINK-5127","OBJECT_ID":"2022-125AY","EPOCH":"2026-03-22T21:38:07.916064","MEAN_MOTION":15.08830393,"ECCENTRICITY":0.00013576,"INCLINATION":53.2174,"RA_OF_ASC_NODE":144.383,"ARG_OF_PERICENTER":94.3257,"MEAN_ANOMALY":265.789,"EPHEMERIS_TYPE":0,"CLASSIFICATION_TYPE":"U","NORAD_CAT_ID":54010,"ELEMENT_SET_NO":999,"REV_AT_EPOCH":19160,"BSTAR":-7.0386761e-5,"MEAN_MOTION_DOT":-1.408e-5,"MEAN_MOTION_DDOT":0},{"OBJECT_NAME":"STARLINK-5124","OBJECT_ID":"2022-125AZ","EPOCH":"2026-03-22T21:22:20.531424","MEAN_MOTION":15.08829369,"ECCENTRICITY":0.00013248,"INCLINATION":53.2169,"RA_OF_ASC_NODE":145.0117,"ARG_OF_PERICENTER":86.2876,"MEAN_ANOMALY":273.8267,"EPHEMERIS_TYPE":0,"CLASSIFICATION_TYPE":"U","NORAD_CAT_ID":54011,"ELEMENT_SET_NO":999,"REV_AT_EPOCH":19159,"BSTAR":-8.161208e-5,"MEAN_MOTION_DOT":-1.586e-5,"MEAN_MOTION_DDOT":0},{"OBJECT_NAME":"STARLINK-5126","OBJECT_ID":"2022-125BA","EPOCH":"2026-03-22T20:45:08.877312","MEAN_MOTION":15.08853645,"ECCENTRICITY":0.0001329,"INCLINATION":53.2179,"RA_OF_ASC_NODE":144.8503,"ARG_OF_PERICENTER":80.7938,"MEAN_ANOMALY":279.3204,"EPHEMERIS_TYPE":0,"CLASSIFICATION_TYPE":"U","NORAD_CAT_ID":54012,"ELEMENT_SET_NO":999,"REV_AT_EPOCH":19159,"BSTAR":0.00012881473,"MEAN_MOTION_DOT":1.764e-5,"MEAN_MOTION_DDOT":0}]
