STARLINK-5131           
1 53996U 22125AJ  26081.59882318  .00002685  00000+0  18668-3 0  9997
2 53996  53.2172 156.0077 0001020 108.4488 251.6615 15.08841408191417
STARLINK-5130           
1 53997U 22125AK  26081.89788432 -.00001442  00000+0 -72566-4 0  9993
2 53997  53.2173 145.0551 0001229  85.8824 274.2308 15.08828902191590
STARLINK-5128           
1 53998U 22125AL  26081.92263969 -.00006537  00000+0 -39252-3 0  9995
2 53998  53.2174 154.4776 0001026  90.7932 269.3178 15.08882669191461
STARLINK-5079           
1 53999U 22125AM  26081.93739568 -.00000634  00000+0 -21772-4 0  9991
2 53999  53.2169 154.5656 0001152  90.1553 269.9571 15.08834305191464
STARLINK-5088           
1 54000U 22125AN  26081.89419955 -.00002004  00000+0 -10788-3 0  9992
2 54000  53.2182 145.0329 0001632  87.4159 272.7020 15.08830770191596
STARLINK-5109           
1 54002U 22125AQ  26081.58501846 -.00001876  00000+0 -99860-4 0  9996
2 54002  53.2177 145.9676 0001271  91.7213 268.3925 15.08831062191550
STARLINK-5114           
1 54003U 22125AR  26081.92632775 -.00000752  00000+0 -29157-4 0  9995
2 54003  53.2170 154.4989 0000985  89.3811 270.7294 15.08839389191460
STARLINK-5129           
1 54004U 22125AS  26081.91529101  .00003163  00000+0  21683-3 0  9995
2 54004  53.2169 154.4270 0001732  80.0342 280.0846 15.08818907191460
STARLINK-5135           
1 54005U 22125AT  26081.91896948 -.00000529  00000+0 -15147-4 0  9996
2 54005  53.2171 154.4531 0001484  82.5983 277.5178 15.08839456191467
STARLINK-5096           
1 54006U 22125AU  26081.90424191 -.00001583  00000+0 -81429-4 0  9990
2 54006  53.2173 154.3706 0001394  82.8661 277.2489 15.08824945191457
STARLINK-5132           
1 54007U 22125AV  26081.51414448  .00003286  00000+0  22436-3 0  9994
2 54007  53.2162 156.1951 0001006  80.6567 279.4539 15.08850202191409
STARLINK-5145           
1 54008U 22125AW  26081.90883932  .00004712  00000+0  31409-3 0  9991
2 54008  53.2158 144.4178 0001264 115.5383 244.5741 15.08822656191608
STARLINK-5099           
1 54009U 22125AX  26081.90793039 -.00001502  00000+0 -76365-4 0  9997
2 54009  53.2170 154.3885 0001019  89.6194 270.4915 15.08824218191468
STARLINK-5127           
1 54010U 22125AY  26081.90148051 -.00001408  00000+0 -70387-4 0  9990
2 54010  53.2174 144.3830 0001357  94.3257 265.7890 15.08830393191607
STARLINK-5124           
1 54011U 22125AZ  26081.89051541 -.00001586  00000+0 -81612-4 0  9996
2 54011  53.2169 145.0117 0001324  86.2876 273.8267 15.08829369191596
STARLINK-5126           
1 54012U 22125BA  26081.86468608  .00001764  00000+0  12881-3 0  9997
2 54012  53.2179 144.8503 0001329  80.7938 279.3204 15.08853645191593
